{
  "type": "FeatureCollection",
  "features": [
    {
      "type": "Feature",
      "properties": {
        "norad_id": 19071,
        "name": "OSCAR 32",
        "group": "nnss",
        "lat": 25.883877124917294,
        "lon": 16.644083526053873,
        "alt_km": 1214.3285690356333,
        "timestamp": "2025-12-21T14:40:48.185220+00:00",
        "meta_object_name": "OSCAR 32",
        "meta_object_id": "1988-033B",
        "meta_epoch": "2025-12-21T07:22:19.333344",
        "meta_mean_motion": 13.27955297,
        "meta_eccentricity": 0.01890015,
        "meta_inclination": 90.3209,
        "meta_ra_of_asc_node": 16.7904,
        "meta_arg_of_pericenter": 143.0548,
        "meta_mean_anomaly": 230.0221,
        "meta_ephemeris_type": 0,
        "meta_classification_type": "U",
        "meta_norad_cat_id": 19071,
        "meta_element_set_no": 999,
        "meta_rev_at_epoch": 82379,
        "meta_bstar": 0.00015041651,
        "meta_mean_motion_dot": 8.5e-07,
        "meta_mean_motion_ddot": 0,
        "tle_line1": "1 19071U 88033B   25355.30716821  .00000085  00000+0  15042-3 0  9995",
        "tle_line2": "2 19071  90.3209  16.7904 0189001 143.0548 230.0221 13.27955297823793"
      },
      "geometry": {
        "type": "Point",
        "coordinates": [
          16.644083526053873,
          25.883877124917294
        ]
      }
    },
    {
      "type": "Feature",
      "properties": {
        "norad_id": 19223,
        "name": "NOVA 2",
        "group": "nnss",
        "lat": 65.39910253524152,
        "lon": 78.29003909539375,
        "alt_km": 1160.5844133135151,
        "timestamp": "2025-12-21T14:40:48.185230+00:00",
        "meta_object_name": "NOVA 2",
        "meta_object_id": "1988-052A",
        "meta_epoch": "2025-12-21T05:21:32.707872",
        "meta_mean_motion": 13.22936696,
        "meta_eccentricity": 0.00298717,
        "meta_inclination": 89.9869,
        "meta_ra_of_asc_node": 78.2619,
        "meta_arg_of_pericenter": 353.4759,
        "meta_mean_anomaly": 23.0527,
        "meta_ephemeris_type": 0,
        "meta_classification_type": "U",
        "meta_norad_cat_id": 19223,
        "meta_element_set_no": 999,
        "meta_rev_at_epoch": 81060,
        "meta_bstar": 9.6528432e-05,
        "meta_mean_motion_dot": 4.9e-07,
        "meta_mean_motion_ddot": 0,
        "tle_line1": "1 19223U 88052A   25355.22329523  .00000049  00000+0  96528-4 0  9994",
        "tle_line2": "2 19223  89.9869  78.2619 0029871 353.4759  23.0527 13.22936696810605"
      },
      "geometry": {
        "type": "Point",
        "coordinates": [
          78.29003909539375,
          65.39910253524152
        ]
      }
    },
    {
      "type": "Feature",
      "properties": {
        "norad_id": 19419,
        "name": "OSCAR 25",
        "group": "nnss",
        "lat": 49.0166754138745,
        "lon": 20.23413811678516,
        "alt_km": 1165.2476399960888,
        "timestamp": "2025-12-21T14:40:48.185240+00:00",
        "meta_object_name": "OSCAR 25",
        "meta_object_id": "1988-074A",
        "meta_epoch": "2025-12-21T02:00:29.261664",
        "meta_mean_motion": 13.4262484,
        "meta_eccentricity": 0.00949094,
        "meta_inclination": 90.0339,
        "meta_ra_of_asc_node": 20.2714,
        "meta_arg_of_pericenter": 221.6823,
        "meta_mean_anomaly": 157.0344,
        "meta_ephemeris_type": 0,
        "meta_classification_type": "U",
        "meta_norad_cat_id": 19419,
        "meta_element_set_no": 999,
        "meta_rev_at_epoch": 82752,
        "meta_bstar": 0.00013959585,
        "meta_mean_motion_dot": 9e-07,
        "meta_mean_motion_ddot": 0,
        "tle_line1": "1 19419U 88074A   25355.08367201  .00000090  00000+0  13960-3 0  9998",
        "tle_line2": "2 19419  90.0339  20.2714 0094909 221.6823 157.0344 13.42624840827523"
      },
      "geometry": {
        "type": "Point",
        "coordinates": [
          20.23413811678516,
          49.0166754138745
        ]
      }
    },
    {
      "type": "Feature",
      "properties": {
        "norad_id": 19420,
        "name": "OSCAR 31",
        "group": "nnss",
        "lat": -67.2127155717678,
        "lon": 20.70850660966423,
        "alt_km": 1092.4986768329873,
        "timestamp": "2025-12-21T14:40:48.185250+00:00",
        "meta_object_name": "OSCAR 31",
        "meta_object_id": "1988-074B",
        "meta_epoch": "2025-12-21T02:52:01.471008",
        "meta_mean_motion": 13.42586063,
        "meta_eccentricity": 0.00932797,
        "meta_inclination": 90.0353,
        "meta_ra_of_asc_node": 20.6227,
        "meta_arg_of_pericenter": 215.7177,
        "meta_mean_anomaly": 218.4862,
        "meta_ephemeris_type": 0,
        "meta_classification_type": "U",
        "meta_norad_cat_id": 19420,
        "meta_element_set_no": 999,
        "meta_rev_at_epoch": 82763,
        "meta_bstar": 0.00013484728,
        "meta_mean_motion_dot": 8.7e-07,
        "meta_mean_motion_ddot": 0,
        "tle_line1": "1 19420U 88074B   25355.11946147  .00000087  00000+0  13485-3 0  9994",
        "tle_line2": "2 19420  90.0353  20.6227 0093279 215.7177 218.4862 13.42586063827632"
      },
      "geometry": {
        "type": "Point",
        "coordinates": [
          20.70850660966423,
          -67.2127155717678
        ]
      }
    }
  ]
}